NORAD_CAT_ID,OBJECT_NAME,OBJECT_TYPE,EPOCH,MEAN_MOTION,ECCENTRICITY,INCLINATION,RA_OF_ASC_NODE,ARG_OF_PERICENTER,MEAN_ANOMALY,BSTAR,MEAN_MOTION_DOT,MEAN_MOTION_DDOT,TLE_LINE0,TLE_LINE1,TLE_LINE2,SEMIMAJOR_AXIS,PERIOD,APOGEE,PERIGEE,DECAYED
56473.0,STARLINK-5486,PAYLOAD,2024-04-23 21:34:03,14.98340404,0.0002289,70.0028,51.0833,244.0117,116.0806,-5.4481e-05,-7.43e-06,0.0,0 STARLINK-5486,1 56473U 23064AB  24114.89865321 -.00000743  00000-0 -54481-4 0  9996,2 56473  70.0028  51.0833 0002289 244.0117 116.0806 14.98340404 53168,6950.161,96.106,573.617,570.435,0.0
56473.0,STARLINK-5486,PAYLOAD,2024-04-24 05:34:43,14.98342392,0.0002196,70.0027,50.241,245.5467,114.5463,2.4416e-05,1.99e-06,0.0,0 STARLINK-5486,1 56473U 23064AB  24115.23244764  .00000199  00000-0  24416-4 0  9995,2 56473  70.0027  50.2410 0002196 245.5467 114.5463 14.98342392 53575,6950.155,96.106,573.546,570.493,0.0
56473.0,STARLINK-5486,PAYLOAD,2024-04-24 21:36:04,14.98332402,0.0002398,70.0031,48.5589,265.1775,94.911,6.0712e-05,6.32e-06,0.0,0 STARLINK-5486,1 56473U 23064AB  24115.90005013  .00000632  00000-0  60712-4 0  9992,2 56473  70.0031  48.5589 0002398 265.1775  94.9110 14.98332402 53673,6950.185,96.107,573.717,570.384,0.0
56473.0,STARLINK-5486,PAYLOAD,2024-04-25 05:36:44,14.98334167,0.0002622,70.002,47.718,259.0999,100.9865,6.3894e-05,6.7e-06,0.0,0 STARLINK-5486,1 56473U 23064AB  24116.23384760  .00000670  00000-0  63894-4 0  9994,2 56473  70.0020  47.7180 0002622 259.0999 100.9865 14.98334167 53360,6950.18,96.107,573.867,570.223,0.0
56473.0,STARLINK-5486,PAYLOAD,2024-04-25 21:38:05,14.98333069,0.0002374,70.003,46.0357,259.4808,100.6083,-4.3422e-05,-6.11e-06,0.0,0 STARLINK-5486,1 56473U 23064AB  24116.90145074 -.00000611  00000-0 -43422-4 0  9993,2 56473  70.0030  46.0357 0002374 259.4808 100.6083 14.98333069 53466,6950.183,96.107,573.698,570.398,0.0
56473.0,STARLINK-5486,PAYLOAD,2024-04-26 04:02:37,14.98327525,0.0002392,70.0031,45.3628,242.7421,117.3495,8.8073e-05,9.58e-06,0.0,0 STARLINK-5486,1 56473U 23064AB  24117.16848973  .00000958  00000-0  88073-4 0  9993,2 56473  70.0031  45.3628 0002392 242.7421 117.3495 14.98327525 53862,6950.201,96.107,573.728,570.403,0.0
56473.0,STARLINK-5486,PAYLOAD,2024-04-26 12:03:17,14.98342275,0.000261,70.0017,44.5157,274.344,85.7421,-6.9442e-05,-9.22e-06,0.0,0 STARLINK-5486,1 56473U 23064AB  24117.50228289 -.00000922  00000-0 -69442-4 0  9995,2 56473  70.0017  44.5157 0002610 274.3440  85.7421 14.98342275 53911,6950.155,96.106,573.834,570.206,0.0
56473.0,STARLINK-5486,PAYLOAD,2024-04-26 20:03:57,14.98332294,0.0002669,70.0017,43.6776,262.4607,97.6249,3.8006e-05,3.61e-06,0.0,0 STARLINK-5486,1 56473U 23064AB  24117.83608556  .00000361  00000-0  38006-4 0  9997,2 56473  70.0017  43.6776 0002669 262.4607  97.6249 14.98332294 53960,6950.186,96.107,573.906,570.196,0.0
56473.0,STARLINK-5486,PAYLOAD,2024-04-27 04:04:37,14.98339157,0.0002563,70.0019,42.8359,262.8359,97.2509,9.6727e-05,1.062e-05,0.0,0 STARLINK-5486,1 56473U 23064AB  24118.16987850  .00001062  00000-0  96727-4 0  9994,2 56473  70.0019  42.8359 0002563 262.8359  97.2509 14.98339157 54018,6950.165,96.106,573.811,570.248,0.0
56473.0,STARLINK-5486,PAYLOAD,2024-04-27 12:05:18,14.98333141,0.0002801,70.0012,41.9937,268.3963,91.6875,-5.145e-05,-7.07e-06,0.0,0 STARLINK-5486,1 56473U 23064AB  24118.50368472 -.00000707  00000-0 -51450-4 0  9996,2 56473  70.0012  41.9937 0002801 268.3963  91.6875 14.98333141 54066,6950.183,96.107,573.995,570.101,0.0
56473.0,STARLINK-5486,PAYLOAD,2024-04-27 20:05:59,14.98322186,0.0002421,70.0018,41.1536,263.2886,96.7998,-0.00012307,-1.561e-05,0.0,0 STARLINK-5486,1 56473U 23064AB  24118.83749534 -.00001561  00000-0 -12307-3 0  9990,2 56473  70.0018  41.1536 0002421 263.2886  96.7998 14.98322186 54110,6950.217,96.108,573.765,570.399,0.0
56473.0,STARLINK-5486,PAYLOAD,2024-04-27 21:42:07,14.98320317,0.0002497,70.0017,40.9857,262.3101,97.7775,-0.00014501,-1.822e-05,0.0,0 STARLINK-5486,1 56473U 23064AB  24118.90425720 -.00001822  00000-0 -14501-3 0  9994,2 56473  70.0017  40.9857 0002497 262.3101  97.7775 14.98320317 53763,6950.223,96.108,573.823,570.352,0.0
56473.0,STARLINK-5486,PAYLOAD,2024-04-28 12:07:20,14.98327964,0.0002792,70.0013,39.4696,271.8549,88.229,-0.00014704,-1.847e-05,0.0,0 STARLINK-5486,1 56473U 23064AB  24119.50509520 -.00001847  00000-0 -14704-3 0  9994,2 56473  70.0013  39.4696 0002792 271.8549  88.2290 14.98327964 53854,6950.199,96.107,574.005,570.124,0.0
56473.0,STARLINK-5486,PAYLOAD,2024-04-28 20:08:00,14.98328596,0.0002785,70.0011,38.628,269.4502,90.6338,-4.804e-06,-1.5e-06,0.0,0 STARLINK-5486,1 56473U 23064AB  24119.83889155 -.00000150  00000-0 -48040-5 0  9993,2 56473  70.0011  38.6280 0002785 269.4502  90.6338 14.98328596 54264,6950.197,96.107,573.998,570.127,0.0
56473.0,STARLINK-5486,PAYLOAD,2024-04-28 21:44:08,14.98329133,0.0002803,70.0011,38.4594,270.747,89.3368,8.4769e-07,-8.3e-07,0.0,0 STARLINK-5486,1 56473U 23064AB  24119.90565112 -.00000083  00000-0  84769-6 0  9998,2 56473  70.0011  38.4594 0002803 270.7470  89.3368 14.98329133 53917,6950.196,96.107,574.009,570.112,0.0
56473.0,STARLINK-5486,PAYLOAD,2024-04-29 12:09:20,14.9833979,0.0002961,70.0007,36.9426,272.3329,87.7491,-9.0376e-05,-1.171e-05,0.0,0 STARLINK-5486,1 56473U 23064AB  24120.50648514 -.00001171  00000-0 -90376-4 0  9993,2 56473  70.0007  36.9426 0002961 272.3329  87.7491 14.98339790 54364,6950.163,96.106,574.086,569.97,0.0
56473.0,STARLINK-5486,PAYLOAD,2024-04-29 21:46:09,14.98315681,0.0002917,70.0006,35.9328,272.457,87.6255,0.00030397,3.534e-05,0.0,0 STARLINK-5486,1 56473U 23064AB  24120.90705131  .00003534  00000-0  30397-3 0  9995,2 56473  70.0006  35.9328 0002917 272.4570  87.6255 14.98315681 54420,6950.237,96.108,574.13,570.075,0.0
56473.0,STARLINK-5486,PAYLOAD,2024-04-30 04:10:40,14.98329978,0.0002993,70.0007,35.2602,272.1095,87.9721,0.00018076,2.064e-05,0.0,0 STARLINK-5486,1 56473U 23064AB  24121.17408552  .00002064  00000-0  18076-3 0  9999,2 56473  70.0007  35.2602 0002993 272.1095  87.9721 14.98329978 54461,6950.193,96.107,574.138,569.978,0.0
56473.0,STARLINK-5486,PAYLOAD,2024-04-30 12:11:21,14.98329893,0.0002976,70.0008,34.4188,272.419,87.6628,8.7941e-05,9.56e-06,0.0,0 STARLINK-5486,1 56473U 23064AB  24121.50788793  .00000956  00000-0  87941-4 0  9990,2 56473  70.0008  34.4188 0002976 272.4190  87.6628 14.98329893 54157,6950.193,96.107,574.127,569.99,0.0
56473.0,STARLINK-5486,PAYLOAD,2024-04-30 20:12:02,14.98319765,0.0002949,70.0009,33.5773,271.4134,88.6688,0.00018101,2.067e-05,0.0,0 STARLINK-5486,1 56473U 23064AB  24121.84169216  .00002067  00000-0  18101-3 0  9996,2 56473  70.0009  33.5773 0002949 271.4134  88.6688 14.98319765 54564,6950.225,96.108,574.139,570.04,0.0
56473.0,STARLINK-5486,PAYLOAD,2024-04-30 21:48:10,14.98330639,0.0002966,70.0009,33.4089,272.2741,87.8078,7.455e-07,-8.4e-07,0.0,0 STARLINK-5486,1 56473U 23064AB  24121.90844959 -.00000084  00000-0  74550-6 0  9998,2 56473  70.0009  33.4089 0002966 272.2741  87.8078 14.98330639 54214,6950.191,96.107,574.117,569.994,0.0
56473.0,STARLINK-5486,PAYLOAD,2024-05-01 04:12:41,14.98338997,0.0002872,70.0009,32.7355,268.4843,91.5987,1.872e-05,1.3e-06,0.0,0 STARLINK-5486,1 56473U 23064AB  24122.17548284  .00000130  00000-0  18720-4 0  9996,2 56473  70.0009  32.7355 0002872 268.4843  91.5987 14.98338997 54618,6950.165,96.106,574.026,570.034,0.0
56473.0,STARLINK-5486,PAYLOAD,2024-05-02 04:14:42,14.98357334,0.0002589,70.001,30.2109,274.6661,85.4202,-0.000384,-4.675e-05,0.0,0 STARLINK-5486,1 56473U 23064AB  24123.17687707 -.00004675  00000-0 -38400-3 0  9997,2 56473  70.0010  30.2109 0002589 274.6661  85.4202 14.98357334 54766,6950.108,96.105,573.773,570.174,0.0
56473.0,STARLINK-5486,PAYLOAD,2024-05-02 10:39:14,14.98338379,0.0002837,70.0011,29.5376,272.8407,87.2428,-0.00011375,-1.45e-05,0.0,0 STARLINK-5486,1 56473U 23064AB  24123.44392186 -.00001450  00000-0 -11375-3 0  9991,2 56473  70.0011  29.5376 0002837 272.8407  87.2428 14.98338379 54801,6950.167,96.106,574.004,570.06,0.0
56473.0,STARLINK-5486,PAYLOAD,2024-05-03 10:41:15,14.98340215,0.0002794,70.0005,27.013,272.0493,88.0346,-0.00012679,-1.606e-05,0.0,0 STARLINK-5486,1 56473U 23064AB  24124.44531828 -.00001606  00000-0 -12679-3 0  9991,2 56473  70.0005  27.0130 0002794 272.0493  88.0346 14.98340215 54950,6950.161,96.106,573.968,570.084,0.0
56473.0,STARLINK-5486,PAYLOAD,2024-05-03 20:18:04,14.98330744,0.0002685,70.0005,26.0031,271.7691,88.3161,-1.4741e-05,-2.69e-06,0.0,0 STARLINK-5486,1 56473U 23064AB  24124.84588099 -.00000269  00000-0 -14741-4 0  9994,2 56473  70.0005  26.0031 0002685 271.7691  88.3161 14.98330744 54655,6950.191,96.107,573.922,570.189,0.0
56473.0,STARLINK-5486,PAYLOAD,2024-05-04 04:18:44,14.983284,0.000275,70.0006,25.1616,270.9307,89.1537,-3.9701e-05,-5.67e-06,0.0,0 STARLINK-5486,1 56473U 23064AB  24125.17968314 -.00000567  00000-0 -39701-4 0  9997,2 56473  70.0006  25.1616 0002750 270.9307  89.1537 14.98328400 55061,6950.198,96.107,573.974,570.152,0.0
56473.0,STARLINK-5486,PAYLOAD,2024-05-05 02:44:37,14.98326945,0.000284,70.0004,22.8048,270.0817,90.0016,-5.7102e-05,-7.74e-06,0.0,0 STARLINK-5486,1 56473U 23064AB  24126.11432559 -.00000774  00000-0 -57102-4 0  9994,2 56473  70.0004  22.8048 0002840 270.0817  90.0016 14.98326945 54849,6950.202,96.107,574.041,570.093,0.0
56473.0,STARLINK-5486,PAYLOAD,2024-05-05 20:22:06,14.98328774,0.0002923,70.0003,20.9528,269.8841,90.1983,5.2492e-05,5.33e-06,0.0,0 STARLINK-5486,1 56473U 23064AB  24126.84868153  .00000533  00000-0  52492-4 0  9995,2 56473  70.0003  20.9528 0002923 269.8841  90.1983 14.98328774 55314,6950.197,96.107,574.093,570.03,0.0
56473.0,STARLINK-5486,PAYLOAD,2024-05-05 21:58:14,14.98329002,0.0002922,70.0003,20.7845,269.8884,90.194,5.3801e-05,5.49e-06,0.0,0 STARLINK-5486,1 56473U 23064AB  24126.91544142  .00000549  00000-0  53801-4 0  9994,2 56473  70.0003  20.7845 0002922 269.8884  90.1940 14.98329002 54968,6950.196,96.107,574.092,570.03,0.0
